{
  "type": "FeatureCollection",
  "features": [
    {
      "type": "Feature",
      "properties": {
        "norad_id": 28051,
        "name": "IRS-P6 (RESOURCESAT-1)",
        "group": "resource",
        "lat": -9.823479375064508,
        "lon": -153.29078791027803,
        "alt_km": 730.7590401188654,
        "timestamp": "2025-12-13T18:50:04.084777+00:00",
        "meta_object_name": "IRS-P6 (RESOURCESAT-1)",
        "meta_object_id": "2003-046A",
        "meta_epoch": "2025-12-13T06:51:38.390400",
        "meta_mean_motion": 14.36074978,
        "meta_eccentricity": 0.00642018,
        "meta_inclination": 98.2179,
        "meta_ra_of_asc_node": 27.6673,
        "meta_arg_of_pericenter": 179.0346,
        "meta_mean_anomaly": 312.8209,
        "meta_ephemeris_type": 0,
        "meta_classification_type": "U",
        "meta_norad_cat_id": 28051,
        "meta_element_set_no": 999,
        "meta_rev_at_epoch": 15384,
        "meta_bstar": 7.9536138e-05,
        "meta_mean_motion_dot": 1.96e-06,
        "meta_mean_motion_ddot": 0,
        "tle_line1": "1 28051U 03046A   25347.28586100  .00000196  00000+0  79536-4 0  9999",
        "tle_line2": "2 28051  98.2179  27.6673 0064201 179.0346 312.8209 14.36074978153843"
      },
      "geometry": {
        "type": "Point",
        "coordinates": [
          -153.29078791027803,
          -9.823479375064508
        ]
      }
    },
    {
      "type": "Feature",
      "properties": {
        "norad_id": 28220,
        "name": "SHIYAN-1 (SY-1)",
        "group": "resource",
        "lat": 48.51008971721293,
        "lon": 40.35847970142416,
        "alt_km": 476.74677513311144,
        "timestamp": "2025-12-13T18:50:04.084788+00:00",
        "meta_object_name": "SHIYAN-1 (SY-1)",
        "meta_object_id": "2004-012A",
        "meta_epoch": "2025-12-13T04:28:36.600672",
        "meta_mean_motion": 15.28164503,
        "meta_eccentricity": 0.00056326,
        "meta_inclination": 97.8937,
        "meta_ra_of_asc_node": 48.7508,
        "meta_arg_of_pericenter": 323.7301,
        "meta_mean_anomaly": 36.3555,
        "meta_ephemeris_type": 0,
        "meta_classification_type": "U",
        "meta_norad_cat_id": 28220,
        "meta_element_set_no": 999,
        "meta_rev_at_epoch": 18263,
        "meta_bstar": 0.00075622395,
        "meta_mean_motion_dot": 0.00020725,
        "meta_mean_motion_ddot": 0,
        "tle_line1": "1 28220U 04012A   25347.18653473  .00020725  00000+0  75622-3 0  9999",
        "tle_line2": "2 28220  97.8937  48.7508 0005632 323.7301  36.3555 15.28164503182638"
      },
      "geometry": {
        "type": "Point",
        "coordinates": [
          40.35847970142416,
          48.51008971721293
        ]
      }
    },
    {
      "type": "Feature",
      "properties": {
        "norad_id": 28376,
        "name": "AURA",
        "group": "resource",
        "lat": -9.985585269338351,
        "lon": 116.54009187463105,
        "alt_km": 694.3951838834273,
        "timestamp": "2025-12-13T18:50:04.084799+00:00",
        "meta_object_name": "AURA",
        "meta_object_id": "2004-026A",
        "meta_epoch": "2025-12-13T06:27:41.675040",
        "meta_mean_motion": 14.60949976,
        "meta_eccentricity": 0.00012786,
        "meta_inclination": 98.3182,
        "meta_ra_of_asc_node": 297.4983,
        "meta_arg_of_pericenter": 94.7795,
        "meta_mean_anomaly": 265.3551,
        "meta_ephemeris_type": 0,
        "meta_classification_type": "U",
        "meta_norad_cat_id": 28376,
        "meta_element_set_no": 999,
        "meta_rev_at_epoch": 13906,
        "meta_bstar": 0.00040169716,
        "meta_mean_motion_dot": 1.92e-05,
        "meta_mean_motion_ddot": 0,
        "tle_line1": "1 28376U 04026A   25347.26923235  .00001920  00000+0  40170-3 0  9997",
        "tle_line2": "2 28376  98.3182 297.4983 0001278  94.7795 265.3551 14.60949976139061"
      },
      "geometry": {
        "type": "Point",
        "coordinates": [
          116.54009187463105,
          -9.985585269338351
        ]
      }
    },
    {
      "type": "Feature",
      "properties": {
        "norad_id": 28649,
        "name": "IRS-P5 (CARTOSAT-1)",
        "group": "resource",
        "lat": 26.10591114433155,
        "lon": -162.12190703571633,
        "alt_km": 596.0611290549241,
        "timestamp": "2025-12-13T18:50:04.084817+00:00",
        "meta_object_name": "IRS-P5 (CARTOSAT-1)",
        "meta_object_id": "2005-017A",
        "meta_epoch": "2025-12-13T02:02:05.724672",
        "meta_mean_motion": 14.90406572,
        "meta_eccentricity": 0.00012037,
        "meta_inclination": 97.5498,
        "meta_ra_of_asc_node": 13.4828,
        "meta_arg_of_pericenter": 47.6046,
        "meta_mean_anomaly": 312.5275,
        "meta_ephemeris_type": 0,
        "meta_classification_type": "U",
        "meta_norad_cat_id": 28649,
        "meta_element_set_no": 999,
        "meta_rev_at_epoch": 11609,
        "meta_bstar": 0.00030479255,
        "meta_mean_motion_dot": 2.917e-05,
        "meta_mean_motion_ddot": 0,
        "tle_line1": "1 28649U 05017A   25347.08478848  .00002917  00000+0  30479-3 0  9994",
        "tle_line2": "2 28649  97.5498  13.4828 0001203  47.6046 312.5275 14.90406572116092"
      },
      "geometry": {
        "type": "Point",
        "coordinates": [
          -162.12190703571633,
          26.10591114433155
        ]
      }
    },
    {
      "type": "Feature",
      "properties": {
        "norad_id": 28893,
        "name": "SINAH 1",
        "group": "resource",
        "lat": 46.752750642030236,
        "lon": 107.46002070413898,
        "alt_km": 675.5802936367982,
        "timestamp": "2025-12-13T18:50:04.084828+00:00",
        "meta_object_name": "SINAH 1",
        "meta_object_id": "2005-043D",
        "meta_epoch": "2025-12-13T07:08:09.457152",
        "meta_mean_motion": 14.63963857,
        "meta_eccentricity": 0.00153705,
        "meta_inclination": 98.2603,
        "meta_ra_of_asc_node": 115.856,
        "meta_arg_of_pericenter": 135.3444,
        "meta_mean_anomaly": 224.8999,
        "meta_ephemeris_type": 0,
        "meta_classification_type": "U",
        "meta_norad_cat_id": 28893,
        "meta_element_set_no": 999,
        "meta_rev_at_epoch": 7332,
        "meta_bstar": 0.00016281533,
        "meta_mean_motion_dot": 8.05e-06,
        "meta_mean_motion_ddot": 0,
        "tle_line1": "1 28893U 05043D   25347.29733168  .00000805  00000+0  16282-3 0  9996",
        "tle_line2": "2 28893  98.2603 115.8560 0015370 135.3444 224.8999 14.63963857 73326"
      },
      "geometry": {
        "type": "Point",
        "coordinates": [
          107.46002070413898,
          46.752750642030236
        ]
      }
    },
    {
      "type": "Feature",
      "properties": {
        "norad_id": 29079,
        "name": "EROS B",
        "group": "resource",
        "lat": 82.62875449596939,
        "lon": 18.584057333124527,
        "alt_km": 356.3464313570312,
        "timestamp": "2025-12-13T18:50:04.084839+00:00",
        "meta_object_name": "EROS B",
        "meta_object_id": "2006-014A",
        "meta_epoch": "2025-12-13T06:12:22.691808",
        "meta_mean_motion": 15.68506441,
        "meta_eccentricity": 0.00022754,
        "meta_inclination": 97.3466,
        "meta_ra_of_asc_node": 103.8564,
        "meta_arg_of_pericenter": 305.8705,
        "meta_mean_anomaly": 54.2345,
        "meta_ephemeris_type": 0,
        "meta_classification_type": "U",
        "meta_norad_cat_id": 29079,
        "meta_element_set_no": 999,
        "meta_rev_at_epoch": 9088,
        "meta_bstar": 0.0019956122,
        "meta_mean_motion_dot": 0.00231051,
        "meta_mean_motion_ddot": 0,
        "tle_line1": "1 29079U 06014A   25347.25859597  .00231051  00000+0  19956-2 0  9992",
        "tle_line2": "2 29079  97.3466 103.8564 0002275 305.8705  54.2345 15.68506441 90883"
      },
      "geometry": {
        "type": "Point",
        "coordinates": [
          18.584057333124527,
          82.62875449596939
        ]
      }
    },
    {
      "type": "Feature",
      "properties": {
        "norad_id": 29228,
        "name": "RESURS-DK 1",
        "group": "resource",
        "lat": 24.23444176924574,
        "lon": -90.33244229157985,
        "alt_km": 529.5830184127426,
        "timestamp": "2025-12-13T18:50:04.084850+00:00",
        "meta_object_name": "RESURS-DK 1",
        "meta_object_id": "2006-021A",
        "meta_epoch": "2025-12-13T07:02:31.809408",
        "meta_mean_motion": 15.12166735,
        "meta_eccentricity": 0.00071541,
        "meta_inclination": 69.9332,
        "meta_ra_of_asc_node": 100.4076,
        "meta_arg_of_pericenter": 258.5455,
        "meta_mean_anomaly": 101.4907,
        "meta_ephemeris_type": 0,
        "meta_classification_type": "U",
        "meta_norad_cat_id": 29228,
        "meta_element_set_no": 999,
        "meta_rev_at_epoch": 7446,
        "meta_bstar": 0.00025921392,
        "meta_mean_motion_dot": 4.378e-05,
        "meta_mean_motion_ddot": 0,
        "tle_line1": "1 29228U 06021A   25347.29342372  .00004378  00000+0  25921-3 0  9998",
        "tle_line2": "2 29228  69.9332 100.4076 0007154 258.5455 101.4907 15.12166735 74466"
      },
      "geometry": {
        "type": "Point",
        "coordinates": [
          -90.33244229157985,
          24.23444176924574
        ]
      }
    }
  ]
}